COSMOS 2433 (720)       
1 32275U 07052A   22075.47920082 -.00000064  00000+0  00000+0 0  9990
2 32275  66.0834   7.7544 0003739 282.0467 291.9537  2.13104068111987
COSMOS 2432 (719)       
1 32276U 07052B   22075.36114836 -.00000065  00000+0  00000+0 0  9992
2 32276  66.0975   7.8580 0011923 329.6162 102.3799  2.13103682111985
COSMOS 2434 (721)       
1 32393U 07065A   22075.11180825  .00000053  00000+0  00000+0 0  9996
2 32393  64.4024 244.6119 0005070  77.0041 104.3696  2.13103091110685
COSMOS 2436 (723)       
1 32395U 07065C   22075.36726987  .00000052  00000+0  00000+0 0  9999
2 32395  64.4110 244.6594 0016489   8.2823 145.0031  2.13102948110629
COSMOS 2456 (730)       
1 36111U 09070A   22075.36393001  .00000064  00000+0  00000+0 0  9997
2 36111  64.3286 124.2510 0004927 301.1314 240.5268  2.13099131 95351
COSMOS 2457 (733)       
1 36112U 09070B   22075.44146058  .00000065  00000+0  00000+0 0  9996
2 36112  64.3119 124.1266 0004843 183.6296 184.0619  2.13101302 95360
COSMOS 2461 (735)       
1 36401U 10007B   22075.60427475 -.00000064  00000+0  00000+0 0  9992
2 36401  65.9711   6.6013 0021778   2.7436 164.7202  2.13103708 93715
COSMOS 2460 (732)       
1 36402U 10007C   22075.10002249 -.00000066  00000+0  00000+0 0  9998
2 36402  65.9584   6.5706 0002149 332.9120 115.2444  2.13106370 93707
COSMOS 2464 (736)       
1 37139U 10041C   22074.65631392  .00000054  00000+0  00000+0 0  9996
2 37139  64.0013 243.7499 0030195  14.4097  36.4500  2.13100721 89754
COSMOS 2476 (744)       
1 37867U 11064A   22075.31156623  .00000063  00000+0  00000+0 0  9993
2 37867  64.6189 125.5729 0022463 238.3206 167.8748  2.13101823 80706
COSMOS 2477 (745)       
1 37868U 11064B   22075.09809832  .00000061  00000+0  00000+0 0  9994
2 37868  64.6265 125.6439 0019827 239.6803 180.9144  2.13101606 80657
COSMOS 2475 (743)       
1 37869U 11064C   22075.15683913  .00000062  00000+0  00000+0 0  9993
2 37869  64.6337 125.6495 0024078 256.7875 166.7955  2.13101776 80664
COSMOS 2485 (747)       
1 39155U 13019A   22075.43117519  .00000064  00000+0  00000+0 0  9992
2 39155  64.7828 125.9768 0022908 234.5318 307.8302  2.13101819 69177
COSMOS 2492 (754)       
1 39620U 14012A   22075.28143620 -.00000066  00000+0  00000+0 0  9991
2 39620  65.8448   6.2588 0015094 324.6692 137.3847  2.13103181 62121
COSMOS 2500 (755)       
1 40001U 14032A   22074.95951023 -.00000067  00000+0  00000+0 0  9996
2 40001  65.7848   6.1378 0005280 222.3688 211.6260  2.13102452 60336
COSMOS 2501 (702K)      
1 40315U 14075A   22074.64937422  .00000054  00000+0  00000+0 0  9999
2 40315  63.7103 244.4546 0016348 205.1699 158.4360  2.13101389 56734
COSMOS 2514 (751)       
1 41330U 16008A   22075.35931887 -.00000066  00000+0  00000+0 0  9997
2 41330  65.5852   5.8390 0009342 225.2714 339.1034  2.13102793 47507
COSMOS 2516 (753)       
1 41554U 16032A   22075.21853740  .00000052  00000+0  00000+0 0  9992
2 41554  63.9356 244.6842 0012085 211.1128 146.1412  2.13106121 45101
COSMOS 2522 (752)       
1 42939U 17055A   22075.18035565  .00000053  00000+0  00000+0 0  9990
2 42939  64.1697 245.0534 0004972 242.2911 303.9972  2.13101954 34868
COSMOS 2527 (756)       
1 43508U 18053A   22075.36300456  .00000064  00000+0  00000+0 0  9998
2 43508  64.9465 125.9602 0009054 235.4866 123.0274  2.13102539 29155
COSMOS 2529 (757)       
1 43687U 18086A   22075.47097162  .00000053  00000+0  00000+0 0  9999
2 43687  64.3836 245.3350 0007199 275.3365  89.4125  2.13102070 26181
COSMOS 2534 (758)       
1 44299U 19030A   22075.33413620  .00000053  00000+0  00000+0 0  9995
2 44299  64.4559 245.2151 0010570 298.0558  96.3467  2.13101982 21828
COSMOS 2544 (759)       
1 44850U 19088A   22075.39393964  .00000064  00000+0  00000+0 0  9997
2 44850  64.9314 125.8129 0013543 260.5843 165.2008  2.13102340 17592
COSMOS 2545 (760)       
1 45358U 20018A   22075.13412877 -.00000067  00000+0  00000+0 0  9997
2 45358  64.9220   6.5312 0009654 261.3480 174.7305  2.13102639 15544
COSMOS 2547 (705K)      
1 46805U 20075A   22075.24873253  .00000053  00000+0  00000+0 0  9993
2 46805  64.6787 244.6150 0005132 246.4583 129.7865  2.13103037 10793
